{
  "type": "FeatureCollection",
  "features": [
    {
      "type": "Feature",
      "properties": {
        "norad_id": 30232,
        "name": "FENGYUN 1C DEB",
        "group": "fengyun-1c-debris",
        "lat": -63.913622559062524,
        "lon": -156.24558023749486,
        "alt_km": 638.4321239173441,
        "timestamp": "2025-12-11T10:53:16.161726+00:00",
        "meta_object_name": "FENGYUN 1C DEB",
        "meta_object_id": "1999-025WR",
        "meta_epoch": "2025-12-11T00:24:59.317344",
        "meta_mean_motion": 14.63567361,
        "meta_eccentricity": 0.0136125,
        "meta_inclination": 98.6936,
        "meta_ra_of_asc_node": 185.0834,
        "meta_arg_of_pericenter": 355.1243,
        "meta_mean_anomaly": 163.4685,
        "meta_ephemeris_type": 0,
        "meta_classification_type": "U",
        "meta_norad_cat_id": 30232,
        "meta_element_set_no": 999,
        "meta_rev_at_epoch": 99726,
        "meta_bstar": 0.001004,
        "meta_mean_motion_dot": 5.904e-05,
        "meta_mean_motion_ddot": 0,
        "tle_line1": "1 30232U 99025WR  25345.01735321  .00005904  00000+0  10040-2 0  9990",
        "tle_line2": "2 30232  98.6936 185.0834 0136125 355.1243 163.4685 14.63567361997261"
      },
      "geometry": {
        "type": "Point",
        "coordinates": [
          -156.24558023749486,
          -63.913622559062524
        ]
      }
    },
    {
      "type": "Feature",
      "properties": {
        "norad_id": 30234,
        "name": "FENGYUN 1C DEB",
        "group": "fengyun-1c-debris",
        "lat": 52.99116860318682,
        "lon": -15.359010899648755,
        "alt_km": 787.0316850753561,
        "timestamp": "2025-12-11T10:53:16.161738+00:00",
        "meta_object_name": "FENGYUN 1C DEB",
        "meta_object_id": "1999-025WT",
        "meta_epoch": "2025-12-11T00:34:59.067264",
        "meta_mean_motion": 14.168604,
        "meta_eccentricity": 0.0067054,
        "meta_inclination": 98.6338,
        "meta_ra_of_asc_node": 355.8525,
        "meta_arg_of_pericenter": 80.0444,
        "meta_mean_anomaly": 305.3878,
        "meta_ephemeris_type": 0,
        "meta_classification_type": "U",
        "meta_norad_cat_id": 30234,
        "meta_element_set_no": 999,
        "meta_rev_at_epoch": 97432,
        "meta_bstar": 0.0004493,
        "meta_mean_motion_dot": 8.78e-06,
        "meta_mean_motion_ddot": 0,
        "tle_line1": "1 30234U 99025WT  25345.02429476  .00000878  00000+0  44930-3 0  9995",
        "tle_line2": "2 30234  98.6338 355.8525 0067054  80.0444 305.3878 14.16860400974325"
      },
      "geometry": {
        "type": "Point",
        "coordinates": [
          -15.359010899648755,
          52.99116860318682
        ]
      }
    },
    {
      "type": "Feature",
      "properties": {
        "norad_id": 30235,
        "name": "FENGYUN 1C DEB",
        "group": "fengyun-1c-debris",
        "lat": 51.95841470887322,
        "lon": -7.69262154434282,
        "alt_km": 968.2602496803411,
        "timestamp": "2025-12-11T10:53:16.161748+00:00",
        "meta_object_name": "FENGYUN 1C DEB",
        "meta_object_id": "1999-025WU",
        "meta_epoch": "2025-12-11T00:43:18.454944",
        "meta_mean_motion": 14.08774385,
        "meta_eccentricity": 0.0153365,
        "meta_inclination": 98.7498,
        "meta_ra_of_asc_node": 3.2476,
        "meta_arg_of_pericenter": 243.4095,
        "meta_mean_anomaly": 182.1473,
        "meta_ephemeris_type": 0,
        "meta_classification_type": "U",
        "meta_norad_cat_id": 30235,
        "meta_element_set_no": 999,
        "meta_rev_at_epoch": 96869,
        "meta_bstar": 0.00044861,
        "meta_mean_motion_dot": 8.18e-06,
        "meta_mean_motion_ddot": 0,
        "tle_line1": "1 30235U 99025WU  25345.03007471  .00000818  00000+0  44861-3 0  9991",
        "tle_line2": "2 30235  98.7498   3.2476 0153365 243.4095 182.1473 14.08774385968693"
      },
      "geometry": {
        "type": "Point",
        "coordinates": [
          -7.69262154434282,
          51.95841470887322
        ]
      }
    },
    {
      "type": "Feature",
      "properties": {
        "norad_id": 30237,
        "name": "FENGYUN 1C DEB",
        "group": "fengyun-1c-debris",
        "lat": -17.226961724609392,
        "lon": -94.59948664868931,
        "alt_km": 764.1952064661928,
        "timestamp": "2025-12-11T10:53:16.161759+00:00",
        "meta_object_name": "FENGYUN 1C DEB",
        "meta_object_id": "1999-025WW",
        "meta_epoch": "2025-12-10T05:46:45.653088",
        "meta_mean_motion": 14.40828706,
        "meta_eccentricity": 0.0013771,
        "meta_inclination": 98.8255,
        "meta_ra_of_asc_node": 86.9107,
        "meta_arg_of_pericenter": 312.7749,
        "meta_mean_anomaly": 77.1847,
        "meta_ephemeris_type": 0,
        "meta_classification_type": "U",
        "meta_norad_cat_id": 30237,
        "meta_element_set_no": 999,
        "meta_rev_at_epoch": 97662,
        "meta_bstar": 0.0037382,
        "meta_mean_motion_dot": 0.0001196,
        "meta_mean_motion_ddot": 0,
        "tle_line1": "1 30237U 99025WW  25344.24080617  .00011960  00000+0  37382-2 0  9997",
        "tle_line2": "2 30237  98.8255  86.9107 0013771 312.7749  77.1847 14.40828706976621"
      },
      "geometry": {
        "type": "Point",
        "coordinates": [
          -94.59948664868931,
          -17.226961724609392
        ]
      }
    },
    {
      "type": "Feature",
      "properties": {
        "norad_id": 30239,
        "name": "FENGYUN 1C DEB",
        "group": "fengyun-1c-debris",
        "lat": -1.3311553362342485,
        "lon": 134.58458757039463,
        "alt_km": 999.34065563489,
        "timestamp": "2025-12-11T10:53:16.161769+00:00",
        "meta_object_name": "FENGYUN 1C DEB",
        "meta_object_id": "1999-025WY",
        "meta_epoch": "2025-12-10T09:34:48.338976",
        "meta_mean_motion": 11.38085097,
        "meta_eccentricity": 0.13464136,
        "meta_inclination": 99.5841,
        "meta_ra_of_asc_node": 133.6533,
        "meta_arg_of_pericenter": 34.675,
        "meta_mean_anomaly": 333.5026,
        "meta_ephemeris_type": 0,
        "meta_classification_type": "U",
        "meta_norad_cat_id": 30239,
        "meta_element_set_no": 999,
        "meta_rev_at_epoch": 54508,
        "meta_bstar": 0.018967185,
        "meta_mean_motion_dot": 6.293e-05,
        "meta_mean_motion_ddot": 0,
        "tle_line1": "1 30239U 99025WY  25344.39917059  .00006293  00000+0  18967-1 0  9994",
        "tle_line2": "2 30239  99.5841 133.6533 1346413  34.6750 333.5026 11.38085097545082"
      },
      "geometry": {
        "type": "Point",
        "coordinates": [
          134.58458757039463,
          -1.3311553362342485
        ]
      }
    },
    {
      "type": "Feature",
      "properties": {
        "norad_id": 30241,
        "name": "FENGYUN 1C DEB",
        "group": "fengyun-1c-debris",
        "lat": -80.71868107185925,
        "lon": -161.26710142969358,
        "alt_km": 973.7653828049006,
        "timestamp": "2025-12-11T10:53:16.161780+00:00",
        "meta_object_name": "FENGYUN 1C DEB",
        "meta_object_id": "1999-025XA",
        "meta_epoch": "2025-12-10T20:40:59.380896",
        "meta_mean_motion": 14.09543353,
        "meta_eccentricity": 0.01468208,
        "meta_inclination": 99.1484,
        "meta_ra_of_asc_node": 117.7121,
        "meta_arg_of_pericenter": 86.3203,
        "meta_mean_anomaly": 63.7654,
        "meta_ephemeris_type": 0,
        "meta_classification_type": "U",
        "meta_norad_cat_id": 30241,
        "meta_element_set_no": 999,
        "meta_rev_at_epoch": 96885,
        "meta_bstar": 0.00035096733,
        "meta_mean_motion_dot": 6.34e-06,
        "meta_mean_motion_ddot": 0,
        "tle_line1": "1 30241U 99025XA  25344.86179839  .00000634  00000+0  35097-3 0  9993",
        "tle_line2": "2 30241  99.1484 117.7121 0146820  86.3203  63.7654 14.09543353968854"
      },
      "geometry": {
        "type": "Point",
        "coordinates": [
          -161.26710142969358,
          -80.71868107185925
        ]
      }
    },
    {
      "type": "Feature",
      "properties": {
        "norad_id": 30242,
        "name": "FENGYUN 1C DEB",
        "group": "fengyun-1c-debris",
        "lat": 10.292319116900712,
        "lon": -158.7565772172958,
        "alt_km": 837.748470224733,
        "timestamp": "2025-12-11T10:53:16.161790+00:00",
        "meta_object_name": "FENGYUN 1C DEB",
        "meta_object_id": "1999-025XB",
        "meta_epoch": "2025-12-11T01:54:26.279712",
        "meta_mean_motion": 14.17631714,
        "meta_eccentricity": 0.0011144,
        "meta_inclination": 98.6834,
        "meta_ra_of_asc_node": 19.2875,
        "meta_arg_of_pericenter": 59.3308,
        "meta_mean_anomaly": 1.4361,
        "meta_ephemeris_type": 0,
        "meta_classification_type": "U",
        "meta_norad_cat_id": 30242,
        "meta_element_set_no": 999,
        "meta_rev_at_epoch": 97403,
        "meta_bstar": 0.0008153,
        "meta_mean_motion_dot": 1.616e-05,
        "meta_mean_motion_ddot": 0,
        "tle_line1": "1 30242U 99025XB  25345.07947083  .00001616  00000+0  81530-3 0  9996",
        "tle_line2": "2 30242  98.6834  19.2875 0011144  59.3308   1.4361 14.17631714974035"
      },
      "geometry": {
        "type": "Point",
        "coordinates": [
          -158.7565772172958,
          10.292319116900712
        ]
      }
    }
  ]
}